HELIOS 1B               
1 25977U 99064A   20164.36137552  .00000024  00000-0  10156-4 0  9996
2 25977  98.2807 319.0673 0001795  47.8834 312.2531 14.82480792105661
TERRA                   
1 25994U 99068A   20164.50090363  .00000036  00000-0  17962-4 0  9998
2 25994  98.2122 238.8552 0001546 101.3860 258.7509 14.57110316 89599
SL-16 R/B               
1 26070U 00006B   20163.79616400  .00000057  00000-0  53600-4 0  9996
2 26070  71.0012 185.1413 0014992 138.8603 221.3653 14.15467085 51835
TITAN 4B R/B            
1 26474U 00047B   20164.23723734  .00000024  00000-0  13110-4 0  9994
2 26474  67.9946  90.0494 0058175 207.7322 152.0716 14.95957729 78545
ENVISAT                 
1 27386U 02009A   20164.26488135  .00000001  00000-0  13831-4 0  9998
2 27386  98.1356 171.5877 0001253  90.5139 280.0365 14.37983250957876
IDEFIX & ARIANE 42P R/B 
1 27422U 02021B   20164.34514781  .00000001  00000-0  16948-4 0  9991
2 27422  98.3507 125.6244 0011029 244.2328 115.7717 14.29289289942540
AQUA                    
1 27424U 02022A   20164.40403723  .00000063  00000-0  24075-4 0  9992
2 27424  98.2091 105.1070 0002197  43.2983  66.5055 14.57112717963182
CZ-4B R/B               
1 27432U 02024C   20164.03246178 -.00000026  00000-0  10674-4 0  9991
2 27432  99.0872 166.1346 0050243 190.5339 234.9989 14.14093916932967
MIDORI II (ADEOS-II)    
1 27597U 02056A   20164.13959016  .00000028  00000-0  28713-4 0  9995
2 27597  98.5195 111.8589 0001729  49.8084 310.3248 14.27448789911055
H-2A R/B                
1 27601U 02056E   20164.06794355  .00000029  00000-0  25593-4 0  9990
2 27601  98.2260 200.1172 0070948 294.1459  85.9569 14.31953130913915
CZ-4B R/B               
1 28059U 03049C   20164.36369620  .00000008  00000-0  13598-4 0  9996
2 28059  98.4864  80.8380 0050574 152.9477 207.4370 14.52601666882073
CZ-2C R/B               
1 28222U 04012C   20163.81796716  .00000287  00000-0  21123-4 0  9990
2 28222  97.6765 126.3433 0048401  50.6176   8.0186 15.10394528885149
SL-16 R/B               
1 28353U 04021B   20163.83144003 -.00000320  00000-0 -14265-3 0  9991
2 28353  70.9992 311.1168 0006150 321.5510  38.5174 14.14228589826344
CZ-4B R/B               
1 28415U 04035C   20163.99062749  .00000484  00000-0  35840-4 0  9990
2 28415  97.6137 205.6282 0051833  12.8714 347.3822 15.06864943862813
CZ-2C R/B               
1 28480U 04046B   20164.07534647 -.00000010  00000-0  11746-4 0  9990
2 28480  98.0784 199.4400 0140779 240.7810 145.6049 14.25723658809679
ARIANE 5 R/B            
1 28499U 04049H   20163.35261944  .00000030  00000-0  11331-4 0  9991
2 28499  98.0546 265.1061 0090861 293.3470 106.4724 14.80029256835196
CZ-2D R/B               
1 28738U 05024B   20163.82204017  .00000287  00000-0  20286-4 0  9994
2 28738  97.3826 186.5837 0011399 195.4599 164.6286 15.12039135820551
SUZAKU (ASTRO-EII)      
1 28773U 05025A   20164.08878769  .00000702  00000-0  29772-4 0  9995
2 28773  31.3830  51.5489 0004483 156.4141 203.6713 15.17567202823124
ALOS (DAICHI)           
1 28931U 06002A   20164.55881222  .00000090  00000-0  26282-4 0  9990
2 28931  97.8449 150.5308 0002262  89.9891 270.1568 14.62714706766987
H-2A R/B                
1 28932U 06002B   20163.94900656  .00000164  00000-0  21495-4 0  9999
2 28932  98.3212 153.6690 0088289 340.4362  71.1436 14.92227663780434
AKARI (ASTRO-F)         
1 28939U 06005A   20163.97014450  .00003035  00000-0  82447-4 0  9994
2 28939  98.2317 137.4429 0092899 344.3121  15.5245 15.34291017780075
RESURS-DK 1             
1 29228U 06021A   20164.35542203  .00000003  00000-0  75333-5 0  9998
2 29228  69.9346 200.9793 0001996 140.8481 219.2825 15.02543870771989
GENESIS 1               
1 29252U 06029A   20163.81091439  .00000363  00000-0  27651-4 0  9991
2 29252  64.5215 320.0371 0012099 179.3879 180.7261 15.18132447767322
CZ-4B R/B               
1 29507U 06046C   20163.82355160  .00000365  00000-0  33124-4 0  9992
2 29507  97.7605 185.7219 0048671 182.2340 177.8674 15.00656563744527
CZ-2C R/B               
1 31114U 07010B   20164.29956279  .00000010  00000-0  23599-4 0  9993
2 31114  98.2620  17.5232 0058532 282.5548  76.9086 14.19322546682285
COSMO-SKYMED 1          
1 31598U 07023A   20164.48209459  .00000271  00000-0  40617-4 0  9994
2 31598  97.8853 347.7272 0001462  89.8551 270.2846 14.82158950704091
GENESIS 2               
1 31789U 07028A   20164.02513899  .00000297  00000-0  24957-4 0  9994
2 31789  64.5056   0.9129 0047027 242.1580 117.4773 15.17275973714345
COSMOS 2428             
1 31792U 07029A   20164.39585846 -.00000309  00000-0 -14157-3 0  9996
2 31792  70.9143 283.5965 0007549  61.9016 298.2867 14.12337497668153
SL-16 R/B               
1 31793U 07029B   20164.39651755 -.00000061  00000-0 -67163-5 0  9992
2 31793  70.9755 256.9821 0002547 269.5190 157.0055 14.14425620669015
KORONAS-FOTON           
1 33504U 09003A   20164.28550132 -.00000019  00000-0 -26611-5 0  9999
2 33504  82.4427 227.9622 0017602 299.3754  60.5720 15.15645875626707
H-2A R/B                
1 38341U 12025E   20163.98696427  .00000127  00000-0  22596-4 0  9990
2 38341  98.4998 318.6496 0054345 249.0207 110.5186 14.84034725436632
CUSAT 2 & FALCON 9 R/B  
1 39271U 13055G   20164.35440798  .00007278  00000-0  17495-3 0  9992
2 39271  80.9668 272.4843 0589170 185.4859 173.9698 14.47927989349998
SL-4 R/B                
1 39679U 14021B   20163.60792249  .00000024  00000-0  19348-4 0  9998
2 39679  51.6161 134.5492 0171478 285.6028  72.6074 15.06421591338467
ALOS-2                  
1 39766U 14029A   20164.50629805 -.00000269  00000-0 -29196-4 0  9995
2 39766  97.9228 261.1735 0001580  93.3928 266.7469 14.79468596326968
CZ-2C R/B               
1 40306U 14071B   20163.80654512  .00002298  00000-0  50457-4 0  9995
2 40306  97.3244 110.2755 0015478 179.1446 180.9832 15.45000629312977
SL-27 R/B               
1 40354U 14084B   20163.87425611  .00000534  00000-0  14302-4 0  9995
2 40354  74.7387  39.6397 0038781 232.4813 127.2873 15.40217300307273
YAOGAN 29               
1 41038U 15069A   20164.43723747 -.00000019  00000-0  44818-5 0  9998
2 41038  98.0102 152.4191 0000538  63.7458 296.3810 14.80449490245531
ASTRO-H (HITOMI)        
1 41337U 16012A   20163.87026089  .00000224  00000-0  11233-4 0  9992
2 41337  31.0068  45.1591 0012301  15.4546 344.6463 14.98686094236663
SHENZHOU-11 MODULE      
1 41868U 16061G   20163.48478377  .00048196  93057-5  10786-3 0  9993
2 41868  42.7862 176.1606 0011791 109.2377  16.1405 15.97653164205116
HXMT (HUIYAN)           
1 42758U 17034A   20164.44470668  .00000084  00000-0  18983-4 0  9998
2 42758  43.0194  63.4750 0011128 348.7933 180.2556 15.08833955165112
CZ-2C R/B               
1 43521U 18054D   20163.86152429  .00000202  00000-0  13386-4 0  9991
2 43521  35.1524 214.4221 0082205  68.1336 292.8096 15.11006669108300
AEOLUS                  
1 43600U 18066A   20164.31363442  .00024108  00000-0  95084-4 0  9998
2 43600  96.7195 170.7888 0004620 105.5084 254.6699 15.86820375104557
SAOCOM 1A               
1 43641U 18076A   20164.42276855 -.00000012  00000-0  51078-5 0  9992
2 43641  97.8892 350.6103 0001482  82.5710 277.5680 14.82158269 90852
CREW DRAGON DEMO-1 DEB  
1 44064U 19011B   20163.78422086  .00011954  00000-0  12520-3 0  9992
2 44064  51.6356 341.1790 0003171  43.1247 316.9996 15.64887876 72028
